{
    "CCSDS_OMM_VERS": "3.0",
    "COMMENT": "GENERATED VIA SPACE-TRACK.ORG API",
    "CREATION_DATE": "2025-05-23T14:46:20",
    "ORIGINATOR": "18 SPCS",
    "OBJECT_NAME": "BEIDOU 14",
    "OBJECT_ID": "2012-050A",
    "CENTER_NAME": "EARTH",
    "REF_FRAME": "TEME",
    "TIME_SYSTEM": "UTC",
    "MEAN_ELEMENT_THEORY": "SGP4",
    "EPOCH": "2025-05-23T04:05:09.983616",
    "MEAN_MOTION": "1.86251382",
    "ECCENTRICITY": "0.00411960",
    "INCLINATION": "56.0949",
    "RA_OF_ASC_NODE": "75.8545",
    "ARG_OF_PERICENTER": "257.5079",
    "MEAN_ANOMALY": "102.0097",
    "EPHEMERIS_TYPE": "0",
    "CLASSIFICATION_TYPE": "U",
    "NORAD_CAT_ID": "38774",
    "ELEMENT_SET_NO": "999",
    "REV_AT_EPOCH": "8641",
    "BSTAR": "0.00000000000000",
    "MEAN_MOTION_DOT": "-0.00000028",
    "MEAN_MOTION_DDOT": "0.0000000000000",
    "SEMIMAJOR_AXIS": "27904.153",
    "PERIOD": "773.149",
    "APOAPSIS": "21640.972",
    "PERIAPSIS": "21411.064",
    "OBJECT_TYPE": "PAYLOAD",
    "RCS_SIZE": "LARGE",
    "COUNTRY_CODE": "PRC",
    "LAUNCH_DATE": "2012-09-18",
    "SITE": "XSC",
    "DECAY_DATE": null,
    "FILE": "4736992",
    "GP_ID": "288175321",
    "TLE_LINE0": "0 BEIDOU 14",
    "TLE_LINE1": "1 38774U 12050A   25143.17025444 -.00000028  00000-0  00000+0 0  9999",
    "TLE_LINE2": "2 38774  56.0949  75.8545 0041196 257.5079 102.0097  1.86251382 86418"
}